{
    "links": {
        "self": "http://www.neowsapp.com/rest/v1/neo/54055063?api_key=iIulBulltgU6a56xZRHN4H3l9WmuAYTsLGpBGhQ2"
    },
    "id": "54055063",
    "neo_reference_id": "54055063",
    "name": "(2020 TT1)",
    "designation": "2020 TT1",
    "nasa_jpl_url": "http://ssd.jpl.nasa.gov/sbdb.cgi?sstr=54055063",
    "absolute_magnitude_h": 27.094,
    "estimated_diameter": {
        "kilometers": {
            "estimated_diameter_min": 0.0101333951,
            "estimated_diameter_max": 0.0226589603
        },
        "meters": {
            "estimated_diameter_min": 10.1333951124,
            "estimated_diameter_max": 22.6589603141
        },
        "miles": {
            "estimated_diameter_min": 0.0062965979,
            "estimated_diameter_max": 0.0140796208
        },
        "feet": {
            "estimated_diameter_min": 33.2460480204,
            "estimated_diameter_max": 74.3404233569
        }
    },
    "is_potentially_hazardous_asteroid": false,
    "close_approach_data": [
        {
            "close_approach_date": "1931-05-23",
            "close_approach_date_full": "1931-May-23 14:27",
            "epoch_date_close_approach": -1218447180000,
            "relative_velocity": {
                "kilometers_per_second": "27.5475292699",
                "kilometers_per_hour": "99171.1053717876",
                "miles_per_hour": "61621.068223931"
            },
            "miss_distance": {
                "astronomical": "0.4657151237",
                "lunar": "181.1631831193",
                "kilometers": "69669990.532306519",
                "miles": "43290924.6899232022"
            },
            "orbiting_body": "Earth"
        },
        {
            "close_approach_date": "2015-01-21",
            "close_approach_date_full": "2015-Jan-21 13:00",
            "epoch_date_close_approach": 1421845200000,
            "relative_velocity": {
                "kilometers_per_second": "4.0904684861",
                "kilometers_per_hour": "14725.6865497889",
                "miles_per_hour": "9149.9689564508"
            },
            "miss_distance": {
                "astronomical": "1.5655477205",
                "lunar": "608.9980632745",
                "kilometers": "234202604.370155335",
                "miles": "145526750.190540223"
            },
            "orbiting_body": "Juptr"
        },
        {
            "close_approach_date": "2017-03-18",
            "close_approach_date_full": "2017-Mar-18 06:01",
            "epoch_date_close_approach": 1489816860000,
            "relative_velocity": {
                "kilometers_per_second": "13.7187996267",
                "kilometers_per_hour": "49387.6786560354",
                "miles_per_hour": "30687.5828849127"
            },
            "miss_distance": {
                "astronomical": "0.0635958087",
                "lunar": "24.7387695843",
                "kilometers": "9513797.522447469",
                "miles": "5911599.6559303122"
            },
            "orbiting_body": "Mars"
        },
        {
            "close_approach_date": "2020-10-07",
            "close_approach_date_full": "2020-Oct-07 16:47",
            "epoch_date_close_approach": 1602089220000,
            "relative_velocity": {
                "kilometers_per_second": "13.965485484",
                "kilometers_per_hour": "50275.7477422715",
                "miles_per_hour": "31239.3944790797"
            },
            "miss_distance": {
                "astronomical": "0.0079745939",
                "lunar": "3.1021170271",
                "kilometers": "1192982.261554993",
                "miles": "741284.8034971834"
            },
            "orbiting_body": "Earth"
        },
        {
            "close_approach_date": "2020-10-07",
            "close_approach_date_full": "2020-Oct-07 21:40",
            "epoch_date_close_approach": 1602106800000,
            "relative_velocity": {
                "kilometers_per_second": "14.6407314833",
                "kilometers_per_hour": "52706.6333399059",
                "miles_per_hour": "32749.8522550099"
            },
            "miss_distance": {
                "astronomical": "0.0083744425",
                "lunar": "3.2576581325",
                "kilometers": "1252798.760437475",
                "miles": "778453.052388155"
            },
            "orbiting_body": "Moon"
        }
    ],
    "orbital_data": {
        "orbit_id": "9",
        "orbit_determination_date": "2020-11-03 14:51:55",
        "first_observation_date": "2020-10-09",
        "last_observation_date": "2020-10-24",
        "data_arc_in_days": 15,
        "observations_used": 37,
        "orbit_uncertainty": "7",
        "minimum_orbit_intersection": ".0078857",
        "jupiter_tisserand_invariant": "3.213",
        "epoch_osculation": "2459000.5",
        "eccentricity": ".637574937847695",
        "semi_major_axis": "2.397867791107117",
        "inclination": "4.327981010444852",
        "ascending_node_longitude": "20.16102934172256",
        "orbital_period": "1356.239153984281",
        "perihelion_distance": ".8690473832250071",
        "perihelion_argument": "305.6426966661774",
        "aphelion_distance": "3.926688198989226",
        "perihelion_time": "2459095.720139921130",
        "mean_anomaly": "334.7247745569776",
        "mean_motion": ".2654399107579314",
        "equinox": "J2000",
        "orbit_class": {
            "orbit_class_type": "APO",
            "orbit_class_description": "Near-Earth asteroid orbits which cross the Earth’s orbit similar to that of 1862 Apollo",
            "orbit_class_range": "a (semi-major axis) > 1.0 AU; q (perihelion) < 1.017 AU"
        }
    },
    "is_sentry_object": false
}